[{"restaurant_name": "Morris Park Bake Shop", "cuisine": "Bakery", "town": "Bronx", "address": {"building_number": "1007", "street": "Morris Park Ave", "postcode": "10462"}}, {"restaurant_name": "Wendy'S", "cuisine": "Hamburgers", "town": "Brooklyn", "address": {"building_number": "469", "street": "Flatbush Avenue", "postcode": "11225"}}, {"restaurant_name": "Dj Reynolds Pub And Restaurant", "cuisine": "Irish", "town": "Manhattan", "address": {"building_number": "351", "street": "West   57 Street", "postcode": "10019"}}, {"restaurant_name": "Riviera Caterer", "cuisine": "American ", "town": "Brooklyn", "address": {"building_number": "2780", "street": "Stillwell Avenue", "postcode": "11224"}}, {"restaurant_name": "Tov Kosher Kitchen", "cuisine": "Jewish/Kosher", "town": "Queens", "address": {"building_number": "97-22", "street": "63 Road", "postcode": "11374"}}, {"restaurant_name": "Brunos On The Boulevard", "cuisine": "American ", "town": "Queens", "address": {"building_number": "8825", "street": "Astoria Boulevard", "postcode": "11369"}}, {"restaurant_name": "Kosher Island", "cuisine": "Jewish/Kosher", "town": "Staten Island", "address": {"building_number": "2206", "street": "Victory Boulevard", "postcode": "10314"}}, {"restaurant_name": "Wilken'S Fine Food", "cuisine": "Delicatessen", "town": "Brooklyn", "address": {"building_number": "7114", "street": "Avenue U", "postcode": "11234"}}, {"restaurant_name": "Regina Caterers", "cuisine": "American ", "town": "Brooklyn", "address": {"building_number": "6409", "street": "11 Avenue", "postcode": "11219"}}, {"restaurant_name": "Taste The Tropics Ice Cream", "cuisine": "Ice Cream, Gelato, Yogurt, Ices", "town": "Brooklyn", "address": {"building_number": "1839", "street": "Nostrand Avenue", "postcode": "11226"}}, {"restaurant_name": "Wild Asia", "cuisine": "American ", "town": "Bronx", "address": {"building_number": "2300", "street": "Southern Boulevard", "postcode": "10460"}}, {"restaurant_name": "C & C Catering Service", "cuisine": "American ", "town": "Brooklyn", "address": {"building_number": "7715", "street": "18 Avenue", "postcode": "11214"}}, {"restaurant_name": "May May Kitchen", "cuisine": "Chinese", "town": "Brooklyn", "address": {"building_number": "1269", "street": "Sutter Avenue", "postcode": "11208"}}, {"restaurant_name": "1 East 66Th Street Kitchen", "cuisine": "American ", "town": "Manhattan", "address": {"building_number": "1", "street": "East   66 Street", "postcode": "10065"}}, {"restaurant_name": "Seuda Foods", "cuisine": "Jewish/Kosher", "town": "Brooklyn", "address": {"building_number": "705", "street": "Kings Highway", "postcode": "11223"}}, {"restaurant_name": "Carvel Ice Cream", "cuisine": "Ice Cream, Gelato, Yogurt, Ices", "town": "Brooklyn", "address": {"building_number": "203", "street": "Church Avenue", "postcode": "11218"}}, {"restaurant_name": "Carvel Ice Cream", "cuisine": "Ice Cream, Gelato, Yogurt, Ices", "town": "Queens", "address": {"building_number": "265-15", "street": "Hillside Avenue", "postcode": "11004"}}, {"restaurant_name": "Nordic Delicacies", "cuisine": "Delicatessen", "town": "Brooklyn", "address": {"building_number": "6909", "street": "3 Avenue", "postcode": "11209"}}, {"restaurant_name": "Glorious Food", "cuisine": "American ", "town": "Manhattan", "address": {"building_number": "522", "street": "East   74 Street", "postcode": "10021"}}, {"restaurant_name": "The Movable Feast", "cuisine": "American ", "town": "Brooklyn", "address": {"building_number": "284", "street": "Prospect Park West", "postcode": "11215"}}, {"restaurant_name": "Sal'S Deli", "cuisine": "Delicatessen", "town": "Queens", "address": {"building_number": "129-08", "street": "20 Avenue", "postcode": "11356"}}, {"restaurant_name": "Bully'S Deli", "cuisine": "Delicatessen", "town": "Manhattan", "address": {"building_number": "759", "street": "Broadway", "postcode": "10003"}}, {"restaurant_name": "Steve Chu'S Deli & Grocery", "cuisine": "Delicatessen", "town": "Queens", "address": {"building_number": "3406", "street": "10 Street", "postcode": "11106"}}, {"restaurant_name": "Harriet'S Kitchen", "cuisine": "Chicken", "town": "Manhattan", "address": {"building_number": "502", "street": "Amsterdam Avenue", "postcode": "10024"}}, {"restaurant_name": "P & S Deli Grocery", "cuisine": "American ", "town": "Manhattan", "address": {"building_number": "730", "street": "Columbus Avenue", "postcode": "10025"}}, {"restaurant_name": "Angelika Film Center", "cuisine": "American ", "town": "Manhattan", "address": {"building_number": "18", "street": "West Houston Street", "postcode": "10012"}}, {"restaurant_name": "White Castle", "cuisine": "Hamburgers", "town": "Brooklyn", "address": {"building_number": "531", "street": "Myrtle Avenue", "postcode": "11205"}}, {"restaurant_name": "Ho Mei Restaurant", "cuisine": "Chinese", "town": "Queens", "address": {"building_number": "103-05", "street": "37 Avenue", "postcode": "11368"}}, {"restaurant_name": "The Country Cafe", "cuisine": "Turkish", "town": "Manhattan", "address": {"building_number": "60", "street": "Wall Street", "postcode": "10005"}}, {"restaurant_name": "Shashemene Int'L Restaura", "cuisine": "Caribbean", "town": "Brooklyn", "address": {"building_number": "195", "street": "East   56 Street", "postcode": "11203"}}, {"restaurant_name": "Downtown Deli", "cuisine": "American ", "town": "Manhattan", "address": {"building_number": "107", "street": "Church Street", "postcode": "10007"}}, {"restaurant_name": "Carvel Ice Cream", "cuisine": "Ice Cream, Gelato, Yogurt, Ices", "town": "Bronx", "address": {"building_number": "1006", "street": "East 233 Street", "postcode": "10466"}}, {"restaurant_name": "Dunkin' Donuts", "cuisine": "Donuts", "town": "Brooklyn", "address": {"building_number": "56", "street": "Court Street", "postcode": "11201"}}, {"restaurant_name": "Mejlander & Mulgannon", "cuisine": "American ", "town": "Brooklyn", "address": {"building_number": "7615", "street": "5 Avenue", "postcode": "11209"}}, {"restaurant_name": "Olive'S", "cuisine": "Bakery", "town": "Manhattan", "address": {"building_number": "120", "street": "Prince Street", "postcode": "10012"}}, {"restaurant_name": "Happy Garden", "cuisine": "Chinese", "town": "Bronx", "address": {"building_number": "1236", "street": "238 Spofford Ave", "postcode": "10474"}}, {"restaurant_name": "Cafe Metro", "cuisine": "American ", "town": "Manhattan", "address": {"building_number": "625", "street": "8 Avenue", "postcode": "10018"}}, {"restaurant_name": "Tony'S Deli", "cuisine": "Delicatessen", "town": "Queens", "address": {"building_number": "1069", "street": "Wyckoff Avenue", "postcode": "11385"}}, {"restaurant_name": "Lexler Deli", "cuisine": "Sandwiches/Salads/Mixed Buffet", "town": "Manhattan", "address": {"building_number": "405", "street": "Lexington Avenue", "postcode": "10174"}}, {"restaurant_name": "Bagels N Buns", "cuisine": "Delicatessen", "town": "Staten Island", "address": {"building_number": "2491", "street": "Victory Boulevard", "postcode": "10314"}}, {"restaurant_name": "Hot Bagels", "cuisine": "Bagels/Pretzels", "town": "Queens", "address": {"building_number": "7905", "street": "Metropolitan Avenue", "postcode": "11379"}}, {"restaurant_name": "Snack Time Grill", "cuisine": "American ", "town": "Queens", "address": {"building_number": "87-69", "street": "Lefferts Boulevard", "postcode": "11418"}}, {"restaurant_name": "Lorenzo & Maria'S", "cuisine": "Continental", "town": "Manhattan", "address": {"building_number": "1418", "street": "Third Avenue", "postcode": "10028"}}, {"restaurant_name": "Domino'S Pizza", "cuisine": "Pizza", "town": "Manhattan", "address": {"building_number": "464", "street": "3 Avenue", "postcode": "10016"}}, {"restaurant_name": "Berkely", "cuisine": "American ", "town": "Manhattan", "address": {"building_number": "437", "street": "Madison Avenue", "postcode": "10022"}}, {"restaurant_name": "Sonny'S Heros", "cuisine": "American ", "town": "Brooklyn", "address": {"building_number": "1031", "street": "East   92 Street", "postcode": "11236"}}, {"restaurant_name": "Carvel Ice Cream", "cuisine": "Ice Cream, Gelato, Yogurt, Ices", "town": "Staten Island", "address": {"building_number": "1111", "street": "Hylan Boulevard", "postcode": "10305"}}, {"restaurant_name": "Golden Pavillion", "cuisine": "Chinese", "town": "Brooklyn", "address": {"building_number": "976", "street": "Rutland Road", "postcode": "11212"}}, {"restaurant_name": "Domino'S Pizza", "cuisine": "Pizza", "town": "Manhattan", "address": {"building_number": "148", "street": "West   72 Street", "postcode": "10023"}}, {"restaurant_name": "Spoon Bread Catering", "cuisine": "American ", "town": "Manhattan", "address": {"building_number": "364", "street": "West  110 Street", "postcode": "10025"}}, {"restaurant_name": "Kosher Bagel Hole", "cuisine": "Jewish/Kosher", "town": "Brooklyn", "address": {"building_number": "1423", "street": "Avenue J", "postcode": "11230"}}, {"restaurant_name": "Terminal Cafe/Yankee Clipper", "cuisine": "American ", "town": "Queens", "address": {"building_number": "0", "street": "Guardia Airport Parking", "postcode": "11371"}}, {"restaurant_name": "Plaza Bagels & Deli", "cuisine": "Delicatessen", "town": "Staten Island", "address": {"building_number": "73", "street": "New Dorp Plaza", "postcode": "10306"}}, {"restaurant_name": "Happy Garden", "cuisine": "Chinese", "town": "Bronx", "address": {"building_number": "277", "street": "East Kingsbridge Road", "postcode": "10458"}}, {"restaurant_name": "B & M Hot Bagel & Grocery", "cuisine": "Delicatessen", "town": "Staten Island", "address": {"building_number": "203", "street": "Giffords Lane", "postcode": "10308"}}, {"restaurant_name": "Texas Rotisserie", "cuisine": "Chicken", "town": "Manhattan", "address": {"building_number": "94", "street": "Fulton Street", "postcode": "10038"}}, {"restaurant_name": "Philadelhia Grille Express", "cuisine": "Italian", "town": "Brooklyn", "address": {"building_number": "10004", "street": "4 Avenue", "postcode": "11209"}}, {"restaurant_name": "Peter Luger Steakhouse", "cuisine": "Steak", "town": "Brooklyn", "address": {"building_number": "178", "street": "Broadway", "postcode": "11211"}}, {"restaurant_name": "Metropolitan Club", "cuisine": "American ", "town": "Manhattan", "address": {"building_number": "1", "street": "East   60 Street", "postcode": "10022"}}, {"restaurant_name": "Palm Restaurant", "cuisine": "American ", "town": "Manhattan", "address": {"building_number": "837", "street": "2 Avenue", "postcode": "10017"}}, {"restaurant_name": "21 Club", "cuisine": "American ", "town": "Manhattan", "address": {"building_number": "21", "street": "West   52 Street", "postcode": "10019"}}, {"restaurant_name": "Manhem Club", "cuisine": "American ", "town": "Bronx", "address": {"building_number": "658", "street": "Clarence Ave", "postcode": "10465"}}, {"restaurant_name": "Isle Of Capri Resturant", "cuisine": "Italian", "town": "Manhattan", "address": {"building_number": "1028", "street": "3 Avenue", "postcode": "10065"}}, {"restaurant_name": "Old Town Bar & Restaurant", "cuisine": "American ", "town": "Manhattan", "address": {"building_number": "45", "street": "East   18 Street", "postcode": "10003"}}, {"restaurant_name": "Polish National Home", "cuisine": "Polish", "town": "Brooklyn", "address": {"building_number": "261", "street": "Driggs Avenue", "postcode": "11222"}}, {"restaurant_name": "Seville Restaurant", "cuisine": "Latin (Cuban, Dominican, Puerto Rican, South & Central American)", "town": "Manhattan", "address": {"building_number": "62", "street": "Charles Street", "postcode": "10014"}}, {"restaurant_name": "Criminal Court Bldg Cafeteria", "cuisine": "American ", "town": "Manhattan", "address": {"building_number": "100", "street": "Centre Street", "postcode": "10013"}}, {"restaurant_name": "Gottscheer Hall", "cuisine": "German", "town": "Queens", "address": {"building_number": "657", "street": "Fairview Avenue", "postcode": "11385"}}, {"restaurant_name": "Nyac Main Dining Room", "cuisine": "American ", "town": "Manhattan", "address": {"building_number": "180", "street": "Central Park South", "postcode": "10019"}}, {"restaurant_name": "7B Bar", "cuisine": "American ", "town": "Manhattan", "address": {"building_number": "108", "street": "Avenue B", "postcode": "10009"}}, {"restaurant_name": "Ben-Best Deli & Restaurant", "cuisine": "Jewish/Kosher", "town": "Queens", "address": {"building_number": "96-40", "street": "Queens Boulevard", "postcode": "11374"}}, {"restaurant_name": "Cafe Atelier (Art Students League)", "cuisine": "American ", "town": "Manhattan", "address": {"building_number": "215", "street": "West 57 Street", "postcode": "10019"}}, {"restaurant_name": "Donohue'S Steak House", "cuisine": "Steak", "town": "Manhattan", "address": {"building_number": "845", "street": "Lexington Avenue", "postcode": "10065"}}, {"restaurant_name": "Tout Va Bien", "cuisine": "French", "town": "Manhattan", "address": {"building_number": "311", "street": "West   51 Street", "postcode": "10019"}}, {"restaurant_name": "Junior'S", "cuisine": "American ", "town": "Brooklyn", "address": {"building_number": "386", "street": "Flatbush Avenue Extension", "postcode": "11201"}}, {"restaurant_name": "Great Kills Yacht Club", "cuisine": "American ", "town": "Staten Island", "address": {"building_number": "37", "street": "Mansion Ave", "postcode": "10308"}}, {"restaurant_name": "Marchis Restaurant", "cuisine": "Italian", "town": "Manhattan", "address": {"building_number": "251", "street": "East   31 Street", "postcode": "10016"}}, {"restaurant_name": "Towne Cafe", "cuisine": "American ", "town": "Brooklyn", "address": {"building_number": "2602", "street": "East   15 Street", "postcode": "11235"}}, {"restaurant_name": "Dining Room", "cuisine": "Continental", "town": "Manhattan", "address": {"building_number": ".1-A", "street": "East 77 St", "postcode": "10021"}}, {"restaurant_name": "Old Homestead", "cuisine": "American ", "town": "Manhattan", "address": {"building_number": "56", "street": "9 Avenue", "postcode": "10011"}}, {"restaurant_name": "New Park Pizzeria & Restaurant", "cuisine": "Pizza/Italian", "town": "Queens", "address": {"building_number": "156-71", "street": "Crossbay Boulevard", "postcode": "11414"}}, {"restaurant_name": "Douglaston Club", "cuisine": "American ", "town": "Queens", "address": {"building_number": "600", "street": "West Drive", "postcode": "11363"}}, {"restaurant_name": "Serendipity 3", "cuisine": "American ", "town": "Manhattan", "address": {"building_number": "225", "street": "East   60 Street", "postcode": "10022"}}, {"restaurant_name": "Melody Lanes", "cuisine": "American ", "town": "Brooklyn", "address": {"building_number": "461", "street": "37 Street", "postcode": "11232"}}, {"restaurant_name": "Rizzo'S Fine Pizza", "cuisine": "Pizza", "town": "Queens", "address": {"building_number": "30-13", "street": "Steinway Street", "postcode": "11103"}}, {"restaurant_name": "The New Starling Athletic Club Of The Bronx", "cuisine": "American ", "town": "Bronx", "address": {"building_number": "2222", "street": "Haviland Avenue", "postcode": "10462"}}, {"restaurant_name": "White Horse Tavern", "cuisine": "American ", "town": "Manhattan", "address": {"building_number": "567", "street": "Hudson Street", "postcode": "10014"}}, {"restaurant_name": "Crystal Room", "cuisine": "Italian", "town": "Staten Island", "address": {"building_number": "67", "street": "Olympia Boulevard", "postcode": "10305"}}, {"restaurant_name": "Labetti'S Post # 2159", "cuisine": "American ", "town": "Staten Island", "address": {"building_number": "390", "street": "Hylan Boulevard", "postcode": "10305"}}, {"restaurant_name": "Shell Lanes", "cuisine": "American ", "town": "Brooklyn", "address": {"building_number": "1", "street": "Bouck Court", "postcode": "11223"}}, {"restaurant_name": "Mcsorley'S Old Ale House", "cuisine": "Irish", "town": "Manhattan", "address": {"building_number": "15", "street": "East    7 Street", "postcode": "10003"}}, {"restaurant_name": "Forlinis Restaurant", "cuisine": "Italian", "town": "Manhattan", "address": {"building_number": "93", "street": "Baxter Street", "postcode": "10013"}}, {"restaurant_name": "South Shore Swimming Club", "cuisine": "American ", "town": "Staten Island", "address": {"building_number": "6736", "street": "Hylan Boulevard", "postcode": "10309"}}, {"restaurant_name": "Corner Bistro", "cuisine": "American ", "town": "Manhattan", "address": {"building_number": "331", "street": "West    4 Street", "postcode": "10014"}}, {"restaurant_name": "Nostrand Donut Shop", "cuisine": "Donuts", "town": "Brooklyn", "address": {"building_number": "1449", "street": "Nostrand Avenue", "postcode": "11226"}}, {"restaurant_name": "Dorrian'S Red Hand Restaurant", "cuisine": "Irish", "town": "Manhattan", "address": {"building_number": "1616", "street": "2 Avenue", "postcode": "10028"}}, {"restaurant_name": "La Grenouille", "cuisine": "French", "town": "Manhattan", "address": {"building_number": "3", "street": "East   52 Street", "postcode": "10022"}}, {"restaurant_name": "Como Pizza", "cuisine": "Pizza", "town": "Manhattan", "address": {"building_number": "4035", "street": "Broadway", "postcode": "10032"}}, {"restaurant_name": "Keats Restaurant", "cuisine": "American ", "town": "Manhattan", "address": {"building_number": "842", "street": "2 Avenue", "postcode": "10017"}}, {"restaurant_name": "Angelo Of Mulberry St.", "cuisine": "Italian", "town": "Manhattan", "address": {"building_number": "146", "street": "Mulberry Street", "postcode": "10013"}}]